STARLINK-36874          
1 67981U 26038W   26071.25001157 -.01018739  00000+0 -57665-2 0  9998
2 67981  97.2689  81.7226 0001318 103.2958 231.7790 15.81582142  3617
STARLINK-36879          
1 67982U 26038X   26071.25001157 -.01254417  00000+0 -70612-2 0  9991
2 67982  97.2681  81.7248 0001233  92.3880 248.8978 15.81825598  3614
STARLINK-36867          
1 67983U 26038Y   26071.25001157 -.01591403  00000+0 -88521-2 0  9999
2 67983  97.2673  81.7303 0001049  94.9066 259.0298 15.82301685  3613
STARLINK-36266          
1 67984U 26038Z   26071.25001157 -.01474751  00000+0 -81974-2 0  9991
2 67984  97.2680  81.7282 0001238 103.7706 244.4853 15.82093480  3580
STARLINK-36802          
1 67985U 26038AA  26071.25001157 -.01623669  00000+0 -89931-2 0  9997
2 67985  97.2671  81.7322 0001089  93.7849 265.3413 15.82454003  3616
STARLINK-36535          
1 67986U 26039A   26071.25001157  .00017256  00000+0  84233-4 0  9997
2 67986  42.9990  39.2505 0001465 253.2154 351.4712 15.82037197  3282
STARLINK-36744          
1 67987U 26039B   26071.25001157 -.00009973  00000+0 -44814-4 0  9998
2 67987  42.9992  39.2392 0001818 250.7734 358.1839 15.82046151  3281
STARLINK-36734          
1 67988U 26039C   26071.25001157 -.01890587  00000+0 -14120-1 0  9993
2 67988  42.9992  39.2794 0001171 260.7875 331.7930 15.75075506  3284
STARLINK-36957          
1 67989U 26039D   26071.25001157 -.00022349  00000+0 -10371-3 0  9992
2 67989  42.9993  39.2167 0001503 256.8977   0.6073 15.82049633  3288
STARLINK-36951          
1 67990U 26039E   26071.25001157 -.00021202  00000+0 -98242-4 0  9995
2 67990  42.9994  39.2061 0001466 282.3695 339.4041 15.82050448  3287
STARLINK-36941          
1 67991U 26039F   26071.25001157 -.01889169  00000+0 -14329-1 0  9992
2 67991  42.9990  39.2512 0001062 265.3867 337.8925 15.74725854  3283
STARLINK-36950          
1 67992U 26039G   26071.25001157 -.01916896  00000+0 -11354-1 0  9996
2 67992  42.9993  39.1867 0001081 261.6717   7.3027 15.80231836  3284
