CCSDS_OMM_VERS = 2.0
CREATION_DATE  = 
ORIGINATOR     = 

OBJECT_NAME    = STARLINK-36874
OBJECT_ID      = 2026-038W
CENTER_NAME    = EARTH
REF_FRAME      = TEME
TIME_SYSTEM    = UTC
MEAN_ELEMENT_THEORY = SGP/SGP4

EPOCH          = 2026-03-12T06:00:00.999648
MEAN_MOTION    = 15.81582142
ECCENTRICITY   = .00013186
INCLINATION    = 97.2689
RA_OF_ASC_NODE = 81.7226
ARG_OF_PERICENTER = 103.2958
MEAN_ANOMALY   = 231.7790

EPHEMERIS_TYPE = 0
CLASSIFICATION_TYPE = U
NORAD_CAT_ID   = 67981
ELEMENT_SET_NO = 999
REV_AT_EPOCH   = 361
BSTAR          = -.57665475E-2
MEAN_MOTION_DOT = -.1018739E-1
MEAN_MOTION_DDOT = 0

CCSDS_OMM_VERS = 2.0
CREATION_DATE  = 
ORIGINATOR     = 

OBJECT_NAME    = STARLINK-36879
OBJECT_ID      = 2026-038X
CENTER_NAME    = EARTH
REF_FRAME      = TEME
TIME_SYSTEM    = UTC
MEAN_ELEMENT_THEORY = SGP/SGP4

EPOCH          = 2026-03-12T06:00:00.999648
MEAN_MOTION    = 15.81825598
ECCENTRICITY   = .00012337
INCLINATION    = 97.2681
RA_OF_ASC_NODE = 81.7248
ARG_OF_PERICENTER = 92.3880
MEAN_ANOMALY   = 248.8978

EPHEMERIS_TYPE = 0
CLASSIFICATION_TYPE = U
NORAD_CAT_ID   = 67982
ELEMENT_SET_NO = 999
REV_AT_EPOCH   = 361
BSTAR          = -.70611854E-2
MEAN_MOTION_DOT = -.1254417E-1
MEAN_MOTION_DDOT = 0

CCSDS_OMM_VERS = 2.0
CREATION_DATE  = 
ORIGINATOR     = 

OBJECT_NAME    = STARLINK-36867
OBJECT_ID      = 2026-038Y
CENTER_NAME    = EARTH
REF_FRAME      = TEME
TIME_SYSTEM    = UTC
MEAN_ELEMENT_THEORY = SGP/SGP4

EPOCH          = 2026-03-12T06:00:00.999648
MEAN_MOTION    = 15.82301685
ECCENTRICITY   = .00010495
INCLINATION    = 97.2673
RA_OF_ASC_NODE = 81.7303
ARG_OF_PERICENTER = 94.9066
MEAN_ANOMALY   = 259.0298

EPHEMERIS_TYPE = 0
CLASSIFICATION_TYPE = U
NORAD_CAT_ID   = 67983
ELEMENT_SET_NO = 999
REV_AT_EPOCH   = 361
BSTAR          = -.88520574E-2
MEAN_MOTION_DOT = -.1591403E-1
MEAN_MOTION_DDOT = 0

CCSDS_OMM_VERS = 2.0
CREATION_DATE  = 
ORIGINATOR     = 

OBJECT_NAME    = STARLINK-36266
OBJECT_ID      = 2026-038Z
CENTER_NAME    = EARTH
REF_FRAME      = TEME
TIME_SYSTEM    = UTC
MEAN_ELEMENT_THEORY = SGP/SGP4

EPOCH          = 2026-03-12T06:00:00.999648
MEAN_MOTION    = 15.82093480
ECCENTRICITY   = .00012387
INCLINATION    = 97.2680
RA_OF_ASC_NODE = 81.7282
ARG_OF_PERICENTER = 103.7706
MEAN_ANOMALY   = 244.4853

EPHEMERIS_TYPE = 0
CLASSIFICATION_TYPE = U
NORAD_CAT_ID   = 67984
ELEMENT_SET_NO = 999
REV_AT_EPOCH   = 358
BSTAR          = -.81973836E-2
MEAN_MOTION_DOT = -.1474751E-1
MEAN_MOTION_DDOT = 0

CCSDS_OMM_VERS = 2.0
CREATION_DATE  = 
ORIGINATOR     = 

OBJECT_NAME    = STARLINK-36802
OBJECT_ID      = 2026-038AA
CENTER_NAME    = EARTH
REF_FRAME      = TEME
TIME_SYSTEM    = UTC
MEAN_ELEMENT_THEORY = SGP/SGP4

EPOCH          = 2026-03-12T06:00:00.999648
MEAN_MOTION    = 15.82454003
ECCENTRICITY   = .00010893
INCLINATION    = 97.2671
RA_OF_ASC_NODE = 81.7322
ARG_OF_PERICENTER = 93.7849
MEAN_ANOMALY   = 265.3413

EPHEMERIS_TYPE = 0
CLASSIFICATION_TYPE = U
NORAD_CAT_ID   = 67985
ELEMENT_SET_NO = 999
REV_AT_EPOCH   = 361
BSTAR          = -.89931325E-2
MEAN_MOTION_DOT = -.1623669E-1
MEAN_MOTION_DDOT = 0

CCSDS_OMM_VERS = 2.0
CREATION_DATE  = 
ORIGINATOR     = 

OBJECT_NAME    = STARLINK-36535
OBJECT_ID      = 2026-039A
CENTER_NAME    = EARTH
REF_FRAME      = TEME
TIME_SYSTEM    = UTC
MEAN_ELEMENT_THEORY = SGP/SGP4

EPOCH          = 2026-03-12T06:00:00.999648
MEAN_MOTION    = 15.82037197
ECCENTRICITY   = .00014651
INCLINATION    = 42.9990
RA_OF_ASC_NODE = 39.2505
ARG_OF_PERICENTER = 253.2154
MEAN_ANOMALY   = 351.4712

EPHEMERIS_TYPE = 0
CLASSIFICATION_TYPE = U
NORAD_CAT_ID   = 67986
ELEMENT_SET_NO = 999
REV_AT_EPOCH   = 328
BSTAR          = .84232968E-4
MEAN_MOTION_DOT = .17256E-3
MEAN_MOTION_DDOT = 0

CCSDS_OMM_VERS = 2.0
CREATION_DATE  = 
ORIGINATOR     = 

OBJECT_NAME    = STARLINK-36744
OBJECT_ID      = 2026-039B
CENTER_NAME    = EARTH
REF_FRAME      = TEME
TIME_SYSTEM    = UTC
MEAN_ELEMENT_THEORY = SGP/SGP4

EPOCH          = 2026-03-12T06:00:00.999648
MEAN_MOTION    = 15.82046151
ECCENTRICITY   = .00018185
INCLINATION    = 42.9992
RA_OF_ASC_NODE = 39.2392
ARG_OF_PERICENTER = 250.7734
MEAN_ANOMALY   = 358.1839

EPHEMERIS_TYPE = 0
CLASSIFICATION_TYPE = U
NORAD_CAT_ID   = 67987
ELEMENT_SET_NO = 999
REV_AT_EPOCH   = 328
BSTAR          = -.44813737E-4
MEAN_MOTION_DOT = -.9973E-4
MEAN_MOTION_DDOT = 0

CCSDS_OMM_VERS = 2.0
CREATION_DATE  = 
ORIGINATOR     = 

OBJECT_NAME    = STARLINK-36734
OBJECT_ID      = 2026-039C
CENTER_NAME    = EARTH
REF_FRAME      = TEME
TIME_SYSTEM    = UTC
MEAN_ELEMENT_THEORY = SGP/SGP4

EPOCH          = 2026-03-12T06:00:00.999648
MEAN_MOTION    = 15.75075506
ECCENTRICITY   = .00011713
INCLINATION    = 42.9992
RA_OF_ASC_NODE = 39.2794
ARG_OF_PERICENTER = 260.7875
MEAN_ANOMALY   = 331.7930

EPHEMERIS_TYPE = 0
CLASSIFICATION_TYPE = U
NORAD_CAT_ID   = 67988
ELEMENT_SET_NO = 999
REV_AT_EPOCH   = 328
BSTAR          = -.14120276E-1
MEAN_MOTION_DOT = -.1890587E-1
MEAN_MOTION_DDOT = 0

CCSDS_OMM_VERS = 2.0
CREATION_DATE  = 
ORIGINATOR     = 

OBJECT_NAME    = STARLINK-36957
OBJECT_ID      = 2026-039D
CENTER_NAME    = EARTH
REF_FRAME      = TEME
TIME_SYSTEM    = UTC
MEAN_ELEMENT_THEORY = SGP/SGP4

EPOCH          = 2026-03-12T06:00:00.999648
MEAN_MOTION    = 15.82049633
ECCENTRICITY   = .00015038
INCLINATION    = 42.9993
RA_OF_ASC_NODE = 39.2167
ARG_OF_PERICENTER = 256.8977
MEAN_ANOMALY   = 0.6073

EPHEMERIS_TYPE = 0
CLASSIFICATION_TYPE = U
NORAD_CAT_ID   = 67989
ELEMENT_SET_NO = 999
REV_AT_EPOCH   = 328
BSTAR          = -.10371365E-3
MEAN_MOTION_DOT = -.22349E-3
MEAN_MOTION_DDOT = 0

CCSDS_OMM_VERS = 2.0
CREATION_DATE  = 
ORIGINATOR     = 

OBJECT_NAME    = STARLINK-36951
OBJECT_ID      = 2026-039E
CENTER_NAME    = EARTH
REF_FRAME      = TEME
TIME_SYSTEM    = UTC
MEAN_ELEMENT_THEORY = SGP/SGP4

EPOCH          = 2026-03-12T06:00:00.999648
MEAN_MOTION    = 15.82050448
ECCENTRICITY   = .00014666
INCLINATION    = 42.9994
RA_OF_ASC_NODE = 39.2061
ARG_OF_PERICENTER = 282.3695
MEAN_ANOMALY   = 339.4041

EPHEMERIS_TYPE = 0
CLASSIFICATION_TYPE = U
NORAD_CAT_ID   = 67990
ELEMENT_SET_NO = 999
REV_AT_EPOCH   = 328
BSTAR          = -.98242277E-4
MEAN_MOTION_DOT = -.21202E-3
MEAN_MOTION_DDOT = 0

CCSDS_OMM_VERS = 2.0
CREATION_DATE  = 
ORIGINATOR     = 

OBJECT_NAME    = STARLINK-36941
OBJECT_ID      = 2026-039F
CENTER_NAME    = EARTH
REF_FRAME      = TEME
TIME_SYSTEM    = UTC
MEAN_ELEMENT_THEORY = SGP/SGP4

EPOCH          = 2026-03-12T06:00:00.999648
MEAN_MOTION    = 15.74725854
ECCENTRICITY   = .00010626
INCLINATION    = 42.9990
RA_OF_ASC_NODE = 39.2512
ARG_OF_PERICENTER = 265.3867
MEAN_ANOMALY   = 337.8925

EPHEMERIS_TYPE = 0
CLASSIFICATION_TYPE = U
NORAD_CAT_ID   = 67991
ELEMENT_SET_NO = 999
REV_AT_EPOCH   = 328
BSTAR          = -.14328535E-1
MEAN_MOTION_DOT = -.1889169E-1
MEAN_MOTION_DDOT = 0

CCSDS_OMM_VERS = 2.0
CREATION_DATE  = 
ORIGINATOR     = 

OBJECT_NAME    = STARLINK-36950
OBJECT_ID      = 2026-039G
CENTER_NAME    = EARTH
REF_FRAME      = TEME
TIME_SYSTEM    = UTC
MEAN_ELEMENT_THEORY = SGP/SGP4

EPOCH          = 2026-03-12T06:00:00.999648
MEAN_MOTION    = 15.80231836
ECCENTRICITY   = .00010815
INCLINATION    = 42.9993
RA_OF_ASC_NODE = 39.1867
ARG_OF_PERICENTER = 261.6717
MEAN_ANOMALY   = 7.3027

EPHEMERIS_TYPE = 0
CLASSIFICATION_TYPE = U
NORAD_CAT_ID   = 67992
ELEMENT_SET_NO = 999
REV_AT_EPOCH   = 328
BSTAR          = -.11354283E-1
MEAN_MOTION_DOT = -.1916896E-1
MEAN_MOTION_DDOT = 0

